{
  "type": "FeatureCollection",
  "features": [
    {
      "type": "Feature",
      "properties": {
        "norad_id": 25590,
        "name": "COSMOS 2361",
        "group": "musson",
        "lat": 38.49020582305203,
        "lon": 151.3980654079671,
        "alt_km": 987.7902457234759,
        "timestamp": "2025-12-22T05:49:03.769210+00:00",
        "meta_object_name": "COSMOS 2361",
        "meta_object_id": "1998-076A",
        "meta_epoch": "2025-12-21T17:44:02.812416",
        "meta_mean_motion": 13.73218504,
        "meta_eccentricity": 0.0030205,
        "meta_inclination": 82.9342,
        "meta_ra_of_asc_node": 337.43,
        "meta_arg_of_pericenter": 239.5294,
        "meta_mean_anomaly": 294.2766,
        "meta_ephemeris_type": 0,
        "meta_classification_type": "U",
        "meta_norad_cat_id": 25590,
        "meta_element_set_no": 999,
        "meta_rev_at_epoch": 35234,
        "meta_bstar": 3.8572e-05,
        "meta_mean_motion_dot": 5.1e-07,
        "meta_mean_motion_ddot": 0,
        "tle_line1": "1 25590U 98076A   25355.73892144  .00000051  00000+0  38572-4 0  9993",
        "tle_line2": "2 25590  82.9342 337.4300 0030205 239.5294 294.2766 13.73218504352342"
      },
      "geometry": {
        "type": "Point",
        "coordinates": [
          151.3980654079671,
          38.49020582305203
        ]
      }
    },
    {
      "type": "Feature",
      "properties": {
        "norad_id": 26818,
        "name": "COSMOS 2378",
        "group": "musson",
        "lat": -65.06804319500091,
        "lon": -171.83128990298363,
        "alt_km": 982.7152193994152,
        "timestamp": "2025-12-22T05:49:03.769232+00:00",
        "meta_object_name": "COSMOS 2378",
        "meta_object_id": "2001-023A",
        "meta_epoch": "2025-12-21T18:59:06.942048",
        "meta_mean_motion": 13.74142656,
        "meta_eccentricity": 0.0032963,
        "meta_inclination": 82.927,
        "meta_ra_of_asc_node": 353.0129,
        "meta_arg_of_pericenter": 179.4605,
        "meta_mean_anomaly": 354.6275,
        "meta_ephemeris_type": 0,
        "meta_classification_type": "U",
        "meta_norad_cat_id": 26818,
        "meta_element_set_no": 999,
        "meta_rev_at_epoch": 23047,
        "meta_bstar": 2.1724e-05,
        "meta_mean_motion_dot": 3.6e-07,
        "meta_mean_motion_ddot": 0,
        "tle_line1": "1 26818U 01023A   25355.79105257  .00000036  00000+0  21724-4 0  9995",
        "tle_line2": "2 26818  82.9270 353.0129 0032963 179.4605 354.6275 13.74142656230470"
      },
      "geometry": {
        "type": "Point",
        "coordinates": [
          -171.83128990298363,
          -65.06804319500091
        ]
      }
    },
    {
      "type": "Feature",
      "properties": {
        "norad_id": 27436,
        "name": "COSMOS 2389",
        "group": "musson",
        "lat": 51.70109201733021,
        "lon": 110.93643733219213,
        "alt_km": 977.8830693156006,
        "timestamp": "2025-12-22T05:49:03.769246+00:00",
        "meta_object_name": "COSMOS 2389",
        "meta_object_id": "2002-026A",
        "meta_epoch": "2025-12-21T19:02:11.881248",
        "meta_mean_motion": 13.75155504,
        "meta_eccentricity": 0.0047258,
        "meta_inclination": 82.951,
        "meta_ra_of_asc_node": 300.2827,
        "meta_arg_of_pericenter": 36.0662,
        "meta_mean_anomaly": 28.4745,
        "meta_ephemeris_type": 0,
        "meta_classification_type": "U",
        "meta_norad_cat_id": 27436,
        "meta_element_set_no": 999,
        "meta_rev_at_epoch": 18273,
        "meta_bstar": 3.8977e-05,
        "meta_mean_motion_dot": 5.3e-07,
        "meta_mean_motion_ddot": 0,
        "tle_line1": "1 27436U 02026A   25355.79319307  .00000053  00000+0  38977-4 0  9996",
        "tle_line2": "2 27436  82.9510 300.2827 0047258  36.0662  28.4745 13.75155504182737"
      },
      "geometry": {
        "type": "Point",
        "coordinates": [
          110.93643733219213,
          51.70109201733021
        ]
      }
    },
    {
      "type": "Feature",
      "properties": {
        "norad_id": 27818,
        "name": "COSMOS 2398",
        "group": "musson",
        "lat": -15.155635015442796,
        "lon": -96.22527862877492,
        "alt_km": 1000.4341253446682,
        "timestamp": "2025-12-22T05:49:03.769257+00:00",
        "meta_object_name": "COSMOS 2398",
        "meta_object_id": "2003-023A",
        "meta_epoch": "2025-12-21T19:40:46.024032",
        "meta_mean_motion": 13.72386608,
        "meta_eccentricity": 0.0032718,
        "meta_inclination": 82.9484,
        "meta_ra_of_asc_node": 266.0072,
        "meta_arg_of_pericenter": 87.607,
        "meta_mean_anomaly": 331.7317,
        "meta_ephemeris_type": 0,
        "meta_classification_type": "U",
        "meta_norad_cat_id": 27818,
        "meta_element_set_no": 999,
        "meta_rev_at_epoch": 12941,
        "meta_bstar": 6.0232e-05,
        "meta_mean_motion_dot": 7.1e-07,
        "meta_mean_motion_ddot": 0,
        "tle_line1": "1 27818U 03023A   25355.81997713  .00000071  00000+0  60232-4 0  9993",
        "tle_line2": "2 27818  82.9484 266.0072 0032718  87.6070 331.7317 13.72386608129411"
      },
      "geometry": {
        "type": "Point",
        "coordinates": [
          -96.22527862877492,
          -15.155635015442796
        ]
      }
    },
    {
      "type": "Feature",
      "properties": {
        "norad_id": 28380,
        "name": "COSMOS 2407",
        "group": "musson",
        "lat": -44.96177848967252,
        "lon": -161.2321216012224,
        "alt_km": 975.5787372821515,
        "timestamp": "2025-12-22T05:49:03.769268+00:00",
        "meta_object_name": "COSMOS 2407",
        "meta_object_id": "2004-028A",
        "meta_epoch": "2025-12-21T14:24:34.609248",
        "meta_mean_motion": 13.76314649,
        "meta_eccentricity": 0.0039921,
        "meta_inclination": 82.9597,
        "meta_ra_of_asc_node": 206.3322,
        "meta_arg_of_pericenter": 30.6809,
        "meta_mean_anomaly": 345.284,
        "meta_ephemeris_type": 0,
        "meta_classification_type": "U",
        "meta_norad_cat_id": 28380,
        "meta_element_set_no": 999,
        "meta_rev_at_epoch": 7545,
        "meta_bstar": 4.7774e-05,
        "meta_mean_motion_dot": 6.2e-07,
        "meta_mean_motion_ddot": 0,
        "tle_line1": "1 28380U 04028A   25355.60040057  .00000062  00000+0  47774-4 0  9997",
        "tle_line2": "2 28380  82.9597 206.3322 0039921  30.6809 345.2840 13.76314649 75452"
      },
      "geometry": {
        "type": "Point",
        "coordinates": [
          -161.2321216012224,
          -44.96177848967252
        ]
      }
    },
    {
      "type": "Feature",
      "properties": {
        "norad_id": 28521,
        "name": "COSMOS 2414",
        "group": "musson",
        "lat": -73.32857777563389,
        "lon": 21.885644133340055,
        "alt_km": 966.9432669397611,
        "timestamp": "2025-12-22T05:49:03.769279+00:00",
        "meta_object_name": "COSMOS 2414",
        "meta_object_id": "2005-002A",
        "meta_epoch": "2025-12-21T18:12:56.748096",
        "meta_mean_motion": 13.87904162,
        "meta_eccentricity": 0.0041318,
        "meta_inclination": 82.9488,
        "meta_ra_of_asc_node": 177.8396,
        "meta_arg_of_pericenter": 114.6334,
        "meta_mean_anomaly": 245.9142,
        "meta_ephemeris_type": 0,
        "meta_classification_type": "U",
        "meta_norad_cat_id": 28521,
        "meta_element_set_no": 999,
        "meta_rev_at_epoch": 5920,
        "meta_bstar": 4.6064e-05,
        "meta_mean_motion_dot": 7.1e-07,
        "meta_mean_motion_ddot": 0,
        "tle_line1": "1 28521U 05002A   25355.75899014  .00000071  00000+0  46064-4 0  9999",
        "tle_line2": "2 28521  82.9488 177.8396 0041318 114.6334 245.9142 13.87904162 59203"
      },
      "geometry": {
        "type": "Point",
        "coordinates": [
          21.885644133340055,
          -73.32857777563389
        ]
      }
    },
    {
      "type": "Feature",
      "properties": {
        "norad_id": 32052,
        "name": "COSMOS 2429",
        "group": "musson",
        "lat": -47.201835085835846,
        "lon": -31.34289152902132,
        "alt_km": 973.3025350526641,
        "timestamp": "2025-12-22T05:49:03.769290+00:00",
        "meta_object_name": "COSMOS 2429",
        "meta_object_id": "2007-038A",
        "meta_epoch": "2025-12-21T16:04:39.938880",
        "meta_mean_motion": 13.75150242,
        "meta_eccentricity": 0.0038726,
        "meta_inclination": 82.9806,
        "meta_ra_of_asc_node": 336.7252,
        "meta_arg_of_pericenter": 13.345,
        "meta_mean_anomaly": 346.8721,
        "meta_ephemeris_type": 0,
        "meta_classification_type": "U",
        "meta_norad_cat_id": 32052,
        "meta_element_set_no": 999,
        "meta_rev_at_epoch": 91725,
        "meta_bstar": 3.4528e-05,
        "meta_mean_motion_dot": 4.8e-07,
        "meta_mean_motion_ddot": 0,
        "tle_line1": "1 32052U 07038A   25355.66990670  .00000048  00000+0  34528-4 0  9990",
        "tle_line2": "2 32052  82.9806 336.7252 0038726  13.3450 346.8721 13.75150242917252"
      },
      "geometry": {
        "type": "Point",
        "coordinates": [
          -31.34289152902132,
          -47.201835085835846
        ]
      }
    },
    {
      "type": "Feature",
      "properties": {
        "norad_id": 35635,
        "name": "COSMOS 2454",
        "group": "musson",
        "lat": 13.584012694071971,
        "lon": 163.15332260031192,
        "alt_km": 917.6970667516471,
        "timestamp": "2025-12-22T05:49:03.769300+00:00",
        "meta_object_name": "COSMOS 2454",
        "meta_object_id": "2009-039A",
        "meta_epoch": "2025-12-21T19:57:28.639008",
        "meta_mean_motion": 13.8992963,
        "meta_eccentricity": 0.0020168,
        "meta_inclination": 82.9556,
        "meta_ra_of_asc_node": 161.7527,
        "meta_arg_of_pericenter": 49.3294,
        "meta_mean_anomaly": 70.121,
        "meta_ephemeris_type": 0,
        "meta_classification_type": "U",
        "meta_norad_cat_id": 35635,
        "meta_element_set_no": 999,
        "meta_rev_at_epoch": 83276,
        "meta_bstar": 2.9226e-05,
        "meta_mean_motion_dot": 5.2e-07,
        "meta_mean_motion_ddot": 0,
        "tle_line1": "1 35635U 09039A   25355.83158147  .00000052  00000+0  29226-4 0  9991",
        "tle_line2": "2 35635  82.9556 161.7527 0020168  49.3294  70.1210 13.89929630832763"
      },
      "geometry": {
        "type": "Point",
        "coordinates": [
          163.15332260031192,
          13.584012694071971
        ]
      }
    },
    {
      "type": "Feature",
      "properties": {
        "norad_id": 36519,
        "name": "COSMOS 2463",
        "group": "musson",
        "lat": 30.368737174204153,
        "lon": -164.42267208836475,
        "alt_km": 1001.313727055307,
        "timestamp": "2025-12-22T05:49:03.769311+00:00",
        "meta_object_name": "COSMOS 2463",
        "meta_object_id": "2010-017A",
        "meta_epoch": "2025-12-21T19:25:55.588224",
        "meta_mean_motion": 13.71649902,
        "meta_eccentricity": 0.0034759,
        "meta_inclination": 82.9604,
        "meta_ra_of_asc_node": 20.0472,
        "meta_arg_of_pericenter": 261.9663,
        "meta_mean_anomaly": 272.0747,
        "meta_ephemeris_type": 0,
        "meta_classification_type": "U",
        "meta_norad_cat_id": 36519,
        "meta_element_set_no": 999,
        "meta_rev_at_epoch": 78361,
        "meta_bstar": 3.842e-05,
        "meta_mean_motion_dot": 5e-07,
        "meta_mean_motion_ddot": 0,
        "tle_line1": "1 36519U 10017A   25355.80967116  .00000050  00000+0  38420-4 0  9996",
        "tle_line2": "2 36519  82.9604  20.0472 0034759 261.9663 272.0747 13.71649902783617"
      },
      "geometry": {
        "type": "Point",
        "coordinates": [
          -164.42267208836475,
          30.368737174204153
        ]
      }
    }
  ]
}